ORBCOMM FM24            
1 25478U 98053D   25194.91263414  .00000560  00000+0  22952-3 0  9995
2 25478  45.0070 142.3740 0003904 340.4165  19.6533 14.38142954401579
ORBCOMM FM25            
1 25479U 98053E   25194.88449441  .00000616  00000+0  24799-3 0  9991
2 25479  45.0061 140.7817 0005777 359.8646   0.2200 14.38115516401587
ORBCOMM FM26            
1 25480U 98053F   25194.91349607  .00000501  00000+0  21429-3 0  9990
2 25480  45.0059 137.2948 0006895  20.0841 340.0278 14.37170762401491
ORBCOMM FM27            
1 25481U 98053G   25194.87163057  .00000633  00000+0  25329-3 0  9998
2 25481  45.0044 141.0361 0002544 331.1655  28.9052 14.38146390401510
ORBCOMM FM28            
1 25482U 98053H   25194.97528460  .00000510  00000+0  21225-3 0  9998
2 25482  45.0059  78.0067 0005074  61.9871 298.1490 14.38331778402219
ORBCOMM FM30            
1 25980U 99065A   25194.76142839  .00000489  00000+0  20944-3 0  9996
2 25980  45.0328 323.9272 0007323 152.3675 207.7564 14.37339549338272
ORBCOMM FM31            
1 25981U 99065B   25194.73582344  .00000471  00000+0  20390-3 0  9999
2 25981  45.0239 317.5310 0005204 178.7859 181.3003 14.37277613337826
ORBCOMM FM32            
1 25982U 99065C   25194.79998918  .00000500  00000+0  21733-3 0  9999
2 25982  45.0171 333.9849 0007350 168.3631 191.7388 14.36322094338429
